{"type": "FeatureCollection", "features": [ {"type": "Feature", "properties": {"norad_id": 30061, "name": "FENGYUN 1C DEB", "group": "fengyun-1c-debris", "lat": -26.16735943651145, "lon": 118.8888975226953, "alt_km": 1196.5036418628724, "timestamp": "2025-12-26T16:33:55.845423+00:00", "meta": {"OBJECT_NAME": "FENGYUN 1C DEB", "OBJECT_ID": "1999-025PN", "EPOCH": "2025-12-26T06:18:16.685568", "MEAN_MOTION": 13.4653407, "ECCENTRICITY": 0.0373418, "INCLINATION": 101.8746, "RA_OF_ASC_NODE": 112.4486, "ARG_OF_PERICENTER": 219.9613, "MEAN_ANOMALY": 197.8894, "EPHEMERIS_TYPE": 0, "CLASSIFICATION_TYPE": "U", "NORAD_CAT_ID": 30061, "ELEMENT_SET_NO": 999, "REV_AT_EPOCH": 92281, "BSTAR": 0.0042468988, "MEAN_MOTION_DOT": 3.852e-05, "MEAN_MOTION_DDOT": 0}, "tle": {"line1": "1 30061U 99025PN  25360.26269312  .00003852  00000+0  42469-2 0  9996", "line2": "2 30061 101.8746 112.4486 0373418 219.9613 197.8894 13.46534070922813"}}, "geometry": {"type": "Point", "coordinates": [118.8888975226953, -26.16735943651145]}}, {"type": "Feature", "properties": {"norad_id": 30062, "name": "FENGYUN 1C DEB", "group": "fengyun-1c-debris", "lat": 70.76102305599888, "lon": -16.810351819728897, "alt_km": 846.3943696948927, "timestamp": "2025-12-26T16:33:55.845432+00:00", "meta": {"OBJECT_NAME": "FENGYUN 1C DEB", "OBJECT_ID": "1999-025PP", "EPOCH": "2025-12-26T07:44:49.771392", "MEAN_MOTION": 14.07130393, "ECCENTRICITY": 0.0048955, "INCLINATION": 98.7805, "RA_OF_ASC_NODE": 9.1191, "ARG_OF_PERICENTER": 10.3193, "MEAN_ANOMALY": 1.7744, "EPHEMERIS_TYPE": 0, "CLASSIFICATION_TYPE": "U", "NORAD_CAT_ID": 30062, "ELEMENT_SET_NO": 999, "REV_AT_EPOCH": 97099, "BSTAR": 0.00048972675, "MEAN_MOTION_DOT": 7.86e-06, "MEAN_MOTION_DDOT": 0}, "tle": {"line1": "1 30062U 99025PP  25360.32279828  .00000786  00000+0  48973-3 0  9997", "line2": "2 30062  98.7805   9.1191 0048955  10.3193   1.7744 14.07130393970997"}}, "geometry": {"type": "Point", "coordinates": [-16.810351819728897, 70.76102305599888]}}, {"type": "Feature", "properties": {"norad_id": 30063, "name": "FENGYUN 1C DEB", "group": "fengyun-1c-debris", "lat": 28.71560428970582, "lon": 163.60495094084735, "alt_km": 825.1730150597741, "timestamp": "2025-12-26T16:33:55.845441+00:00", "meta": {"OBJECT_NAME": "FENGYUN 1C DEB", "OBJECT_ID": "1999-025PQ", "EPOCH": "2025-12-26T04:16:05.153952", "MEAN_MOTION": 14.15615984, "ECCENTRICITY": 0.00333459, "INCLINATION": 98.5229, "RA_OF_ASC_NODE": 338.4028, "ARG_OF_PERICENTER": 96.7227, "MEAN_ANOMALY": 324.0084, "EPHEMERIS_TYPE": 0, "CLASSIFICATION_TYPE": "U", "NORAD_CAT_ID": 30063, "ELEMENT_SET_NO": 999, "REV_AT_EPOCH": 97855, "BSTAR": 7.9150728e-05, "MEAN_MOTION_DOT": 1.15e-06, "MEAN_MOTION_DDOT": 0}, "tle": {"line1": "1 30063U 99025PQ  25360.17783743  .00000115  00000+0  79151-4 0  9996", "line2": "2 30063  98.5229 338.4028 0033345  96.7227 324.0084 14.15615984978557"}}, "geometry": {"type": "Point", "coordinates": [163.60495094084735, 28.71560428970582]}}, {"type": "Feature", "properties": {"norad_id": 30064, "name": "FENGYUN 1C DEB", "group": "fengyun-1c-debris", "lat": -28.718345631981677, "lon": -173.47365080722915, "alt_km": 885.5635538340839, "timestamp": "2025-12-26T16:33:55.845450+00:00", "meta": {"OBJECT_NAME": "FENGYUN 1C DEB", "OBJECT_ID": "1999-025PR", "EPOCH": "2025-12-25T22:54:09.779040", "MEAN_MOTION": 14.14278142, "ECCENTRICITY": 0.006665, "INCLINATION": 98.6612, "RA_OF_ASC_NODE": 10.6034, "ARG_OF_PERICENTER": 74.1969, "MEAN_ANOMALY": 349.3399, "EPHEMERIS_TYPE": 0, "CLASSIFICATION_TYPE": "U", "NORAD_CAT_ID": 30064, "ELEMENT_SET_NO": 999, "REV_AT_EPOCH": 97692, "BSTAR": 0.00016189, "MEAN_MOTION_DOT": 2.74e-06, "MEAN_MOTION_DDOT": 0}, "tle": {"line1": "1 30064U 99025PR  25359.95427985  .00000274  00000+0  16189-3 0  9991", "line2": "2 30064  98.6612  10.6034 0066650  74.1969 349.3399 14.14278142976927"}}, "geometry": {"type": "Point", "coordinates": [-173.47365080722915, -28.718345631981677]}}, {"type": "Feature", "properties": {"norad_id": 30065, "name": "FENGYUN 1C DEB", "group": "fengyun-1c-debris", "lat": -50.353459206653994, "lon": 141.90087627158863, "alt_km": 997.0574911066042, "timestamp": "2025-12-26T16:33:55.845460+00:00", "meta": {"OBJECT_NAME": "FENGYUN 1C DEB", "OBJECT_ID": "1999-025PS", "EPOCH": "2025-12-25T22:08:02.544288", "MEAN_MOTION": 13.86921432, "ECCENTRICITY": 0.0131131, "INCLINATION": 98.6858, "RA_OF_ASC_NODE": 331.8177, "ARG_OF_PERICENTER": 355.7519, "MEAN_ANOMALY": 4.2516, "EPHEMERIS_TYPE": 0, "CLASSIFICATION_TYPE": "U", "NORAD_CAT_ID": 30065, "ELEMENT_SET_NO": 999, "REV_AT_EPOCH": 95854, "BSTAR": 0.00017446, "MEAN_MOTION_DOT": 1.78e-06, "MEAN_MOTION_DDOT": 0}, "tle": {"line1": "1 30065U 99025PS  25359.92225167  .00000178  00000+0  17446-3 0  9997", "line2": "2 30065  98.6858 331.8177 0131131 355.7519   4.2516 13.86921432958543"}}, "geometry": {"type": "Point", "coordinates": [141.90087627158863, -50.353459206653994]}}, {"type": "Feature", "properties": {"norad_id": 30066, "name": "FENGYUN 1C DEB", "group": "fengyun-1c-debris", "lat": -78.59046681175997, "lon": 39.618878295018966, "alt_km": 788.0242362297959, "timestamp": "2025-12-26T16:33:55.845469+00:00", "meta": {"OBJECT_NAME": "FENGYUN 1C DEB", "OBJECT_ID": "1999-025PT", "EPOCH": "2025-12-25T22:35:56.444064", "MEAN_MOTION": 14.19118132, "ECCENTRICITY": 0.011694, "INCLINATION": 98.6352, "RA_OF_ASC_NODE": 350.0388, "ARG_OF_PERICENTER": 223.5088, "MEAN_ANOMALY": 190.55, "EPHEMERIS_TYPE": 0, "CLASSIFICATION_TYPE": "U", "NORAD_CAT_ID": 30066, "ELEMENT_SET_NO": 999, "REV_AT_EPOCH": 98024, "BSTAR": 0.00013549, "MEAN_MOTION_DOT": 2.6e-06, "MEAN_MOTION_DDOT": 0}, "tle": {"line1": "1 30066U 99025PT  25359.94162551  .00000260  00000+0  13549-3 0  9999", "line2": "2 30066  98.6352 350.0388 0116940 223.5088 190.5500 14.19118132980240"}}, "geometry": {"type": "Point", "coordinates": [39.618878295018966, -78.59046681175997]}}, {"type": "Feature", "properties": {"norad_id": 30067, "name": "FENGYUN 1C DEB", "group": "fengyun-1c-debris", "lat": -6.586416357187392, "lon": -111.7867356338746, "alt_km": 646.8230658107641, "timestamp": "2025-12-26T16:33:55.845478+00:00", "meta": {"OBJECT_NAME": "FENGYUN 1C DEB", "OBJECT_ID": "1999-025PU", "EPOCH": "2025-12-26T05:30:19.147392", "MEAN_MOTION": 14.43729873, "ECCENTRICITY": 0.01511446, "INCLINATION": 98.7656, "RA_OF_ASC_NODE": 246.7179, "ARG_OF_PERICENTER": 337.8432, "MEAN_ANOMALY": 141.2989, "EPHEMERIS_TYPE": 0, "CLASSIFICATION_TYPE": "U", "NORAD_CAT_ID": 30067, "ELEMENT_SET_NO": 999, "REV_AT_EPOCH": 99393, "BSTAR": 0.00046308214, "MEAN_MOTION_DOT": 1.754e-05, "MEAN_MOTION_DDOT": 0}, "tle": {"line1": "1 30067U 99025PU  25360.22938828  .00001754  00000+0  46308-3 0  9999", "line2": "2 30067  98.7656 246.7179 0151144 337.8432 141.2989 14.43729873993936"}}, "geometry": {"type": "Point", "coordinates": [-111.7867356338746, -6.586416357187392]}}, {"type": "Feature", "properties": {"norad_id": 30068, "name": "FENGYUN 1C DEB", "group": "fengyun-1c-debris", "lat": 80.57325257829807, "lon": -79.7140039561972, "alt_km": 944.4469271317485, "timestamp": "2025-12-26T16:33:55.845487+00:00", "meta": {"OBJECT_NAME": "FENGYUN 1C DEB", "OBJECT_ID": "1999-025PV", "EPOCH": "2025-12-26T05:57:11.834496", "MEAN_MOTION": 14.12059257, "ECCENTRICITY": 0.01893497, "INCLINATION": 98.7377, "RA_OF_ASC_NODE": 347.72, "ARG_OF_PERICENTER": 310.3483, "MEAN_ANOMALY": 48.1284, "EPHEMERIS_TYPE": 0, "CLASSIFICATION_TYPE": "U", "NORAD_CAT_ID": 30068, "ELEMENT_SET_NO": 999, "REV_AT_EPOCH": 97534, "BSTAR": 0.00020829061, "MEAN_MOTION_DOT": 4.07e-06, "MEAN_MOTION_DDOT": 0}, "tle": {"line1": "1 30068U 99025PV  25360.24805364  .00000407  00000+0  20829-3 0  9994", "line2": "2 30068  98.7377 347.7200 0189349 310.3483  48.1284 14.12059257975340"}}, "geometry": {"type": "Point", "coordinates": [-79.7140039561972, 80.57325257829807]}}, {"type": "Feature", "properties": {"norad_id": 30069, "name": "FENGYUN 1C DEB", "group": "fengyun-1c-debris", "lat": -5.138574816295976, "lon": 161.32878441541664, "alt_km": 914.6200718577093, "timestamp": "2025-12-26T16:33:55.845496+00:00", "meta": {"OBJECT_NAME": "FENGYUN 1C DEB", "OBJECT_ID": "1999-025PW", "EPOCH": "2025-12-25T22:53:16.266336", "MEAN_MOTION": 14.05237126, "ECCENTRICITY": 0.0049432, "INCLINATION": 98.8027, "RA_OF_ASC_NODE": 341.4123, "ARG_OF_PERICENTER": 16.6291, "MEAN_ANOMALY": 44.2284, "EPHEMERIS_TYPE": 0, "CLASSIFICATION_TYPE": "U", "NORAD_CAT_ID": 30069, "ELEMENT_SET_NO": 999, "REV_AT_EPOCH": 97032, "BSTAR": 0.00031381, "MEAN_MOTION_DOT": 4.7e-06, "MEAN_MOTION_DDOT": 0}, "tle": {"line1": "1 30069U 99025PW  25359.95366049  .00000470  00000+0  31381-3 0  9998", "line2": "2 30069  98.8027 341.4123 0049432  16.6291  44.2284 14.05237126970325"}}, "geometry": {"type": "Point", "coordinates": [161.32878441541664, -5.138574816295976]}}, {"type": "Feature", "properties": {"norad_id": 30070, "name": "FENGYUN 1C DEB", "group": "fengyun-1c-debris", "lat": -27.876614737923923, "lon": -125.16679384999438, "alt_km": 779.5612021208308, "timestamp": "2025-12-26T16:33:55.845505+00:00", "meta": {"OBJECT_NAME": "FENGYUN 1C DEB", "OBJECT_ID": "1999-025PX", "EPOCH": "2025-12-26T03:54:00.184896", "MEAN_MOTION": 14.10020808, "ECCENTRICITY": 0.03279305, "INCLINATION": 98.2844, "RA_OF_ASC_NODE": 58.7661, "ARG_OF_PERICENTER": 280.2616, "MEAN_ANOMALY": 134.0705, "EPHEMERIS_TYPE": 0, "CLASSIFICATION_TYPE": "U", "NORAD_CAT_ID": 30070, "ELEMENT_SET_NO": 999, "REV_AT_EPOCH": 96068, "BSTAR": 0.0015446796, "MEAN_MOTION_DOT": 4.457e-05, "MEAN_MOTION_DDOT": 0}, "tle": {"line1": "1 30070U 99025PX  25360.16250214  .00004457  00000+0  15447-2 0  9994", "line2": "2 30070  98.2844  58.7661 0327930 280.2616 134.0705 14.10020808960682"}}, "geometry": {"type": "Point", "coordinates": [-125.16679384999438, -27.876614737923923]}}]}